CSS (TIANHE)            
1 48274U 21035A   24113.84034877  .00030887  00000+0  31311-3 0  9995
2 48274  41.4684  61.1730 0005499  64.7728 295.3681 15.64551122170434
